start=new Date('2023-06-06T00:00:00.000Z').valueOf();
sats=[{"INCLINATION":"53.0546","CENTER_NAME":"EARTH","MEAN_MOTION_DOT":"0.00000480","CLASSIFICATION_TYPE":"U","LAUNCH_DATE":"2020-10-24","RCS_SIZE":"LARGE","TLE_LINE2":"2 46783  53.0546 155.4965 0001104  65.0800 295.0304 15.06400698144925","DECAY_DATE":null,"TIME_SYSTEM":"UTC","ARG_OF_PERICENTER":"65.0800","MEAN_MOTION":"15.06400698","EPOCH":"2023-06-05T23:01:38.502624","ELEMENT_SET_NO":"999","RA_OF_ASC_NODE":"155.4965","GP_ID":"233282053","OBJECT_ID":"2020-074AW","NORAD_CAT_ID":"46783","SITE":"AFETR","OBJECT_NAME":"STARLINK-1851","MEAN_MOTION_DDOT":"0.0000000000000","SEMIMAJOR_AXIS":"6925.346","MEAN_ANOMALY":"295.0304","BSTAR":"0.00005112000000","PERIAPSIS":"546.447","REV_AT_EPOCH":"14492","FILE":"3925751","OBJECT_TYPE":"PAYLOAD","EPHEMERIS_TYPE":"0","REF_FRAME":"TEME","MEAN_ELEMENT_THEORY":"SGP4","TLE_LINE1":"1 46783U 20074AW  23156.95947341  .00000480  00000-0  51120-4 0  9995","ECCENTRICITY":"0.00011040","APOAPSIS":"547.976","PERIOD":"95.592","COUNTRY_CODE":"US"},{"REV_AT_EPOCH":"14488","PERIAPSIS":"546.504","BSTAR":"0.00003647800000","MEAN_ELEMENT_THEORY":"SGP4","REF_FRAME":"TEME","EPHEMERIS_TYPE":"0","FILE":"3925751","OBJECT_TYPE":"PAYLOAD","NORAD_CAT_ID":"46784","OBJECT_ID":"2020-074AX","MEAN_ANOMALY":"272.5124","MEAN_MOTION_DDOT":"0.0000000000000","SEMIMAJOR_AXIS":"6925.337","OBJECT_NAME":"STARLINK-1882","SITE":"AFETR","APOAPSIS":"547.900","COUNTRY_CODE":"US","PERIOD":"95.592","ECCENTRICITY":"0.00010080","TLE_LINE1":"1 46784U 20074AX  23156.69682682  .00000262  00000-0  36478-4 0  9998","MEAN_MOTION_DOT":"0.00000262","CENTER_NAME":"EARTH","INCLINATION":"53.0540","RCS_SIZE":"LARGE","LAUNCH_DATE":"2020-10-24","CLASSIFICATION_TYPE":"U","ELEMENT_SET_NO":"999","GP_ID":"233282803","RA_OF_ASC_NODE":"156.6668","TLE_LINE2":"2 46784  53.0540 156.6668 0001008  87.5981 272.5124 15.06403876144881","MEAN_MOTION":"15.06403876","EPOCH":"2023-06-05T16:43:25.837248","ARG_OF_PERICENTER":"87.5981","DECAY_DATE":null,"TIME_SYSTEM":"UTC"},{"REV_AT_EPOCH":"14482","PERIAPSIS":"546.406","BSTAR":"0.00006658600000","MEAN_ELEMENT_THEORY":"SGP4","REF_FRAME":"TEME","EPHEMERIS_TYPE":"0","FILE":"3925691","OBJECT_TYPE":"PAYLOAD","NORAD_CAT_ID":"46785","OBJECT_ID":"2020-074AY","MEAN_ANOMALY":"279.1094","SEMIMAJOR_AXIS":"6925.358","MEAN_MOTION_DDOT":"0.0000000000000","OBJECT_NAME":"STARLINK-1883","SITE":"AFETR","APOAPSIS":"548.040","COUNTRY_CODE":"US","PERIOD":"95.592","TLE_LINE1":"1 46785U 20074AY  23156.28494992  .00000710  00000-0  66586-4 0  9990","ECCENTRICITY":"0.00011800","MEAN_MOTION_DOT":"0.00000710","INCLINATION":"53.0536","CENTER_NAME":"EARTH","RCS_SIZE":"LARGE","LAUNCH_DATE":"2020-10-24","CLASSIFICATION_TYPE":"U","ELEMENT_SET_NO":"999","GP_ID":"233254593","RA_OF_ASC_NODE":"158.5230","TLE_LINE2":"2 46785  53.0536 158.5230 0001180  81.0028 279.1094 15.06396850144821","EPOCH":"2023-06-05T06:50:19.673088","MEAN_MOTION":"15.06396850","ARG_OF_PERICENTER":"81.0028","DECAY_DATE":null,"TIME_SYSTEM":"UTC"},{"APOAPSIS":"547.648","PERIOD":"95.592","COUNTRY_CODE":"US","TLE_LINE1":"1 46786U 20074AZ  23156.92813667  .00001452  00000-0  11632-3 0  9991","ECCENTRICITY":"0.00006430","PERIAPSIS":"546.758","REV_AT_EPOCH":"14520","BSTAR":"0.00011632000000","REF_FRAME":"TEME","MEAN_ELEMENT_THEORY":"SGP4","FILE":"3925751","OBJECT_TYPE":"PAYLOAD","EPHEMERIS_TYPE":"0","NORAD_CAT_ID":"46786","OBJECT_ID":"2020-074AZ","SEMIMAJOR_AXIS":"6925.338","MEAN_MOTION_DDOT":"0.0000000000000","MEAN_ANOMALY":"288.2953","SITE":"AFETR","OBJECT_NAME":"STARLINK-1893","ELEMENT_SET_NO":"999","GP_ID":"233281302","RA_OF_ASC_NODE":"135.6313","TLE_LINE2":"2 46786  53.0542 135.6313 0000643  71.8106 288.2953 15.06403402145204","ARG_OF_PERICENTER":"71.8106","EPOCH":"2023-06-05T22:16:31.008288","MEAN_MOTION":"15.06403402","DECAY_DATE":null,"TIME_SYSTEM":"UTC","MEAN_MOTION_DOT":"0.00001452","CENTER_NAME":"EARTH","INCLINATION":"53.0542","RCS_SIZE":"LARGE","CLASSIFICATION_TYPE":"U","LAUNCH_DATE":"2020-10-24"},{"TLE_LINE1":"1 46787U 20074BA  23156.32365034  .00001382  00000-0  11168-3 0  9992","ECCENTRICITY":"0.00008650","APOAPSIS":"547.821","COUNTRY_CODE":"US","PERIOD":"95.592","OBJECT_ID":"2020-074BA","NORAD_CAT_ID":"46787","OBJECT_NAME":"STARLINK-1899","SITE":"AFETR","MEAN_ANOMALY":"267.3867","MEAN_MOTION_DDOT":"0.0000000000000","SEMIMAJOR_AXIS":"6925.357","BSTAR":"0.00011168000000","REV_AT_EPOCH":"14511","PERIAPSIS":"546.623","EPHEMERIS_TYPE":"0","FILE":"3925691","OBJECT_TYPE":"PAYLOAD","MEAN_ELEMENT_THEORY":"SGP4","REF_FRAME":"TEME","TLE_LINE2":"2 46787  53.0539 138.3470 0000865  92.7221 267.3867 15.06397284145113","DECAY_DATE":null,"TIME_SYSTEM":"UTC","EPOCH":"2023-06-05T07:46:03.389376","MEAN_MOTION":"15.06397284","ARG_OF_PERICENTER":"92.7221","ELEMENT_SET_NO":"999","RA_OF_ASC_NODE":"138.3470","GP_ID":"233253092","CENTER_NAME":"EARTH","INCLINATION":"53.0539","MEAN_MOTION_DOT":"0.00001382","LAUNCH_DATE":"2020-10-24","CLASSIFICATION_TYPE":"U","RCS_SIZE":"LARGE"},{"COUNTRY_CODE":"US","PERIOD":"95.592","APOAPSIS":"548.108","TLE_LINE1":"1 46788U 20074BB  23156.64801278  .00000810  00000-0  73274-4 0  9995","ECCENTRICITY":"0.00012700","EPHEMERIS_TYPE":"0","OBJECT_TYPE":"PAYLOAD","FILE":"3925751","MEAN_ELEMENT_THEORY":"SGP4","REF_FRAME":"TEME","BSTAR":"0.00007327400000","REV_AT_EPOCH":"14516","PERIAPSIS":"546.349","OBJECT_NAME":"STARLINK-1929","SITE":"AFETR","MEAN_ANOMALY":"265.6023","MEAN_MOTION_DDOT":"0.0000000000000","SEMIMAJOR_AXIS":"6925.363","OBJECT_ID":"2020-074BB","NORAD_CAT_ID":"46788","RA_OF_ASC_NODE":"136.8951","GP_ID":"233282304","ELEMENT_SET_NO":"999","TIME_SYSTEM":"UTC","DECAY_DATE":null,"MEAN_MOTION":"15.06395164","EPOCH":"2023-06-05T15:33:08.304192","ARG_OF_PERICENTER":"94.5111","TLE_LINE2":"2 46788  53.0539 136.8951 0001270  94.5111 265.6023 15.06395164145165","LAUNCH_DATE":"2020-10-24","CLASSIFICATION_TYPE":"U","RCS_SIZE":"LARGE","CENTER_NAME":"EARTH","INCLINATION":"53.0539","MEAN_MOTION_DOT":"0.00000810"},{"MEAN_MOTION_DOT":"0.00001310","CENTER_NAME":"EARTH","INCLINATION":"53.0534","RCS_SIZE":"LARGE","LAUNCH_DATE":"2020-10-24","CLASSIFICATION_TYPE":"U","TLE_LINE2":"2 46789  53.0534 168.1410 0001065  90.9599 269.1512 15.06391335144708","MEAN_MOTION":"15.06391335","EPOCH":"2023-06-05T09:44:11.289408","ARG_OF_PERICENTER":"90.9599","DECAY_DATE":null,"TIME_SYSTEM":"UTC","ELEMENT_SET_NO":"999","GP_ID":"233254094","RA_OF_ASC_NODE":"168.1410","NORAD_CAT_ID":"46789","OBJECT_ID":"2020-074BC","MEAN_ANOMALY":"269.1512","MEAN_MOTION_DDOT":"0.0000000000000","SEMIMAJOR_AXIS":"6925.375","OBJECT_NAME":"STARLINK-1930","SITE":"AFETR","REV_AT_EPOCH":"14470","PERIAPSIS":"546.503","BSTAR":"0.00010681000000","MEAN_ELEMENT_THEORY":"SGP4","REF_FRAME":"TEME","EPHEMERIS_TYPE":"0","OBJECT_TYPE":"PAYLOAD","FILE":"3925691","ECCENTRICITY":"0.00010650","TLE_LINE1":"1 46789U 20074BC  23156.40568622  .00001310  00000-0  10681-3 0  9991","APOAPSIS":"547.978","COUNTRY_CODE":"US","PERIOD":"95.593"},{"LAUNCH_DATE":"2020-10-24","CLASSIFICATION_TYPE":"U","RCS_SIZE":"LARGE","INCLINATION":"53.0537","CENTER_NAME":"EARTH","MEAN_MOTION_DOT":"0.00001160","TIME_SYSTEM":"UTC","DECAY_DATE":null,"MEAN_MOTION":"15.06396768","EPOCH":"2023-06-05T18:24:19.061856","ARG_OF_PERICENTER":"90.1947","TLE_LINE2":"2 46790  53.0537 166.3608 0000914  90.1947 269.9146 15.06396768144754","RA_OF_ASC_NODE":"166.3608","GP_ID":"233281802","ELEMENT_SET_NO":"999","OBJECT_NAME":"STARLINK-1931","SITE":"AFETR","MEAN_ANOMALY":"269.9146","SEMIMAJOR_AXIS":"6925.358","MEAN_MOTION_DDOT":"0.0000000000000","OBJECT_ID":"2020-074BD","NORAD_CAT_ID":"46790","EPHEMERIS_TYPE":"0","OBJECT_TYPE":"PAYLOAD","FILE":"3925751","MEAN_ELEMENT_THEORY":"SGP4","REF_FRAME":"TEME","BSTAR":"0.00009672000000","PERIAPSIS":"546.590","REV_AT_EPOCH":"14475","TLE_LINE1":"1 46790U 20074BD  23156.76688729  .00001160  00000-0  96720-4 0  9995","ECCENTRICITY":"0.00009140","COUNTRY_CODE":"US","PERIOD":"95.592","APOAPSIS":"547.856"},{"SITE":"AFETR","OBJECT_NAME":"STARLINK-1933","SEMIMAJOR_AXIS":"6925.365","MEAN_MOTION_DDOT":"0.0000000000000","MEAN_ANOMALY":"272.2439","OBJECT_ID":"2020-074BE","NORAD_CAT_ID":"46791","OBJECT_TYPE":"PAYLOAD","FILE":"3925691","EPHEMERIS_TYPE":"0","REF_FRAME":"TEME","MEAN_ELEMENT_THEORY":"SGP4","BSTAR":"0.00007612200000","REV_AT_EPOCH":"14471","PERIAPSIS":"546.326","ECCENTRICITY":"0.00013060","TLE_LINE1":"1 46791U 20074BE  23156.44990008  .00000852  00000-0  76122-4 0  9998","PERIOD":"95.592","COUNTRY_CODE":"US","APOAPSIS":"548.134","CLASSIFICATION_TYPE":"U","LAUNCH_DATE":"2020-10-24","RCS_SIZE":"LARGE","CENTER_NAME":"EARTH","INCLINATION":"53.0535","MEAN_MOTION_DOT":"0.00000852","DECAY_DATE":null,"TIME_SYSTEM":"UTC","ARG_OF_PERICENTER":"87.8700","EPOCH":"2023-06-05T10:47:51.366912","MEAN_MOTION":"15.06394626","TLE_LINE2":"2 46791  53.0535 167.7795 0001306  87.8700 272.2439 15.06394626144710","RA_OF_ASC_NODE":"167.7795","GP_ID":"233253592","ELEMENT_SET_NO":"999"},{"ELEMENT_SET_NO":"999","GP_ID":"233253343","RA_OF_ASC_NODE":"158.5561","TLE_LINE2":"2 46792  53.0536 158.5561 0000970  84.9076 275.2024 15.06394546144827","MEAN_MOTION":"15.06394546","EPOCH":"2023-06-05T06:39:42.956928","ARG_OF_PERICENTER":"84.9076","DECAY_DATE":null,"TIME_SYSTEM":"UTC","MEAN_MOTION_DOT":"0.00000422","CENTER_NAME":"EARTH","INCLINATION":"53.0536","RCS_SIZE":"LARGE","LAUNCH_DATE":"2020-10-24","CLASSIFICATION_TYPE":"U","APOAPSIS":"547.902","COUNTRY_CODE":"US","PERIOD":"95.592","ECCENTRICITY":"0.00009700","TLE_LINE1":"1 46792U 20074BF  23156.27758052  .00000422  00000-0  47206-4 0  9995","PERIAPSIS":"546.559","REV_AT_EPOCH":"14482","BSTAR":"0.00004720600000","MEAN_ELEMENT_THEORY":"SGP4","REF_FRAME":"TEME","EPHEMERIS_TYPE":"0","FILE":"3925691","OBJECT_TYPE":"PAYLOAD","NORAD_CAT_ID":"46792","OBJECT_ID":"2020-074BF","MEAN_ANOMALY":"275.2024","MEAN_MOTION_DDOT":"0.0000000000000","SEMIMAJOR_AXIS":"6925.365","OBJECT_NAME":"STARLINK-1934","SITE":"AFETR"}];
